[{"OBJECT_NAME":"ONEWEB-0450","OBJECT_ID":"2021-132AM","EPOCH":"2026-03-09T17:09:03.567168","MEAN_MOTION":13.18686652,"ECCENTRICITY":0.00019502,"INCLINATION":87.9243,"RA_OF_ASC_NODE":355.2212,"ARG_OF_PERICENTER":86.486,"MEAN_ANOMALY":273.6495,"EPHEMERIS_TYPE":0,"CLASSIFICATION_TYPE":"U","NORAD_CAT_ID":50504,"ELEMENT_SET_NO":999,"REV_AT_EPOCH":20849,"BSTAR":0.00020393995,"MEAN_MOTION_DOT":9.3e-7,"MEAN_MOTION_DDOT":0},{"OBJECT_NAME":"SL-14 DEB","OBJECT_ID":"1991-056AC","EPOCH":"2026-03-09T16:50:11.469696","MEAN_MOTION":13.42161468,"ECCENTRICITY":0.01333348,"INCLINATION":82.6256,"RA_OF_ASC_NODE":174.364,"ARG_OF_PERICENTER":171.0429,"MEAN_ANOMALY":189.3134,"EPHEMERIS_TYPE":0,"CLASSIFICATION_TYPE":"U","NORAD_CAT_ID":45290,"ELEMENT_SET_NO":999,"REV_AT_EPOCH":29507,"BSTAR":0.0089337358,"MEAN_MOTION_DOT":5.311e-5,"MEAN_MOTION_DDOT":0}]
